{
    "links": {
        "self": "http://www.neowsapp.com/rest/v1/neo/54049871?api_key=iIulBulltgU6a56xZRHN4H3l9WmuAYTsLGpBGhQ2"
    },
    "id": "54049871",
    "neo_reference_id": "54049871",
    "name": "(2020 ON6)",
    "designation": "2020 ON6",
    "nasa_jpl_url": "http://ssd.jpl.nasa.gov/sbdb.cgi?sstr=54049871",
    "absolute_magnitude_h": 24.23,
    "estimated_diameter": {
        "kilometers": {
            "estimated_diameter_min": 0.0378926498,
            "estimated_diameter_max": 0.0847305409
        },
        "meters": {
            "estimated_diameter_min": 37.8926498379,
            "estimated_diameter_max": 84.7305408852
        },
        "miles": {
            "estimated_diameter_min": 0.0235453937,
            "estimated_diameter_max": 0.0526491009
        },
        "feet": {
            "estimated_diameter_min": 124.3197212943,
            "estimated_diameter_max": 277.9873477579
        }
    },
    "is_potentially_hazardous_asteroid": false,
    "close_approach_data": [
        {
            "close_approach_date": "2020-07-05",
            "close_approach_date_full": "2020-Jul-05 09:32",
            "epoch_date_close_approach": 1593941520000,
            "relative_velocity": {
                "kilometers_per_second": "7.3264479016",
                "kilometers_per_hour": "26375.2124458652",
                "miles_per_hour": "16388.5313111544"
            },
            "miss_distance": {
                "astronomical": "0.1109859935",
                "lunar": "43.1735514715",
                "kilometers": "16603268.227433845",
                "miles": "10316792.480503261"
            },
            "orbiting_body": "Earth"
        }
    ],
    "orbital_data": {
        "orbit_id": "1",
        "orbit_determination_date": "2020-08-01 14:12:06",
        "first_observation_date": "2020-07-17",
        "last_observation_date": "2020-07-31",
        "data_arc_in_days": 14,
        "observations_used": 16,
        "orbit_uncertainty": "8",
        "minimum_orbit_intersection": ".0774126",
        "jupiter_tisserand_invariant": "3.575",
        "epoch_osculation": "2459058.5",
        "eccentricity": ".4822418945464529",
        "semi_major_axis": "2.107273016049687",
        "inclination": "7.530068176707534",
        "ascending_node_longitude": "122.4203863909481",
        "orbital_period": "1117.325307929979",
        "perihelion_distance": "1.091057684463268",
        "perihelion_argument": "168.9395999570829",
        "aphelion_distance": "3.123488347636105",
        "perihelion_time": "2459039.647172332256",
        "mean_anomaly": "6.074343713704881",
        "mean_motion": ".3221980182897285",
        "equinox": "J2000",
        "orbit_class": {
            "orbit_class_type": "AMO",
            "orbit_class_description": "Near-Earth asteroid orbits similar to that of 1221 Amor",
            "orbit_class_range": "1.017 AU < q (perihelion) < 1.3 AU"
        }
    },
    "is_sentry_object": false
}